start=new Date('2023-06-13T00:00:00.000Z').valueOf();
sats=[{"INCLINATION":"53.0206","OBJECT_ID":"2020-001AP","MEAN_MOTION_DDOT":"0.0000000000000","MEAN_ELEMENT_THEORY":"SGP4","EPOCH":"2023-06-12T11:51:05.192640","OBJECT_TYPE":"PAYLOAD","ELEMENT_SET_NO":"999","GP_ID":"233776666","TLE_LINE1":"1 44951U 20001AP  23163.49381010  .00029726  00000-0  62809-3 0  9991","PERIOD":"93.209","FILE":"3931526","ECCENTRICITY":"0.00083420","CLASSIFICATION_TYPE":"U","SITE":"AFETR","MEAN_MOTION":"15.44918398","REF_FRAME":"TEME","TIME_SYSTEM":"UTC","CENTER_NAME":"EARTH","PERIAPSIS":"425.939","MEAN_MOTION_DOT":"0.00029726","ARG_OF_PERICENTER":"55.3379","RA_OF_ASC_NODE":"81.9713","TLE_LINE2":"2 44951  53.0206  81.9713 0008342  55.3379 304.8412 15.44918398191295","MEAN_ANOMALY":"304.8412","REV_AT_EPOCH":"19129","OBJECT_NAME":"STARLINK-1126","SEMIMAJOR_AXIS":"6809.755","BSTAR":"0.00062809000000","EPHEMERIS_TYPE":"0","LAUNCH_DATE":"2020-01-07","RCS_SIZE":"LARGE","NORAD_CAT_ID":"44951","APOAPSIS":"437.301","DECAY_DATE":null,"COUNTRY_CODE":"US"},{"SEMIMAJOR_AXIS":"6925.356","OBJECT_NAME":"STARLINK-1117","REV_AT_EPOCH":"18924","RCS_SIZE":"LARGE","LAUNCH_DATE":"2020-01-07","EPHEMERIS_TYPE":"0","BSTAR":"0.00004170100000","COUNTRY_CODE":"US","APOAPSIS":"548.090","DECAY_DATE":null,"NORAD_CAT_ID":"44952","PERIAPSIS":"546.352","CENTER_NAME":"EARTH","MEAN_MOTION_DOT":"0.00000340","ARG_OF_PERICENTER":"87.5202","MEAN_ANOMALY":"272.5930","TLE_LINE2":"2 44952  53.0531 140.5385 0001255  87.5202 272.5930 15.06397653189243","RA_OF_ASC_NODE":"140.5385","TLE_LINE1":"1 44952U 20001AQ  23163.63148215  .00000340  00000-0  41701-4 0  9996","PERIOD":"95.592","SITE":"AFETR","CLASSIFICATION_TYPE":"U","FILE":"3931605","ECCENTRICITY":"0.00012550","MEAN_MOTION":"15.06397653","TIME_SYSTEM":"UTC","REF_FRAME":"TEME","EPOCH":"2023-06-12T15:09:20.057760","MEAN_ELEMENT_THEORY":"SGP4","OBJECT_ID":"2020-001AQ","MEAN_MOTION_DDOT":"0.0000000000000","INCLINATION":"53.0531","OBJECT_TYPE":"PAYLOAD","ELEMENT_SET_NO":"999","GP_ID":"233797845"},{"MEAN_MOTION_DOT":"0.00000121","PERIAPSIS":"546.409","CENTER_NAME":"EARTH","MEAN_ANOMALY":"279.3414","RA_OF_ASC_NODE":"140.4606","TLE_LINE2":"2 44953  53.0543 140.4606 0001157  80.7706 279.3414 15.06401128190536","ARG_OF_PERICENTER":"80.7706","LAUNCH_DATE":"2020-01-07","EPHEMERIS_TYPE":"0","RCS_SIZE":"LARGE","BSTAR":"0.00002703300000","SEMIMAJOR_AXIS":"6925.345","REV_AT_EPOCH":"19053","OBJECT_NAME":"STARLINK-1124","APOAPSIS":"548.011","DECAY_DATE":null,"COUNTRY_CODE":"US","NORAD_CAT_ID":"44953","OBJECT_TYPE":"PAYLOAD","MEAN_ELEMENT_THEORY":"SGP4","EPOCH":"2023-06-12T15:34:30.761760","INCLINATION":"53.0543","OBJECT_ID":"2020-001AR","MEAN_MOTION_DDOT":"0.0000000000000","GP_ID":"233796836","ELEMENT_SET_NO":"999","SITE":"AFETR","FILE":"3931605","ECCENTRICITY":"0.00011570","CLASSIFICATION_TYPE":"U","PERIOD":"95.592","TLE_LINE1":"1 44953U 20001AR  23163.64896715  .00000121  00000-0  27033-4 0  9992","TIME_SYSTEM":"UTC","REF_FRAME":"TEME","MEAN_MOTION":"15.06401128"},{"TLE_LINE2":"2 44954  53.0543 120.6942 0000940  81.1756 278.9339 15.06391334189467","RA_OF_ASC_NODE":"120.6942","MEAN_ANOMALY":"278.9339","ARG_OF_PERICENTER":"81.1756","MEAN_MOTION_DOT":"0.00000450","CENTER_NAME":"EARTH","PERIAPSIS":"546.589","NORAD_CAT_ID":"44954","COUNTRY_CODE":"US","APOAPSIS":"547.891","DECAY_DATE":null,"BSTAR":"0.00004910400000","RCS_SIZE":"LARGE","EPHEMERIS_TYPE":"0","LAUNCH_DATE":"2020-01-07","OBJECT_NAME":"STARLINK-1066","REV_AT_EPOCH":"18946","SEMIMAJOR_AXIS":"6925.375","GP_ID":"233797343","ELEMENT_SET_NO":"999","OBJECT_TYPE":"PAYLOAD","MEAN_MOTION_DDOT":"0.0000000000000","OBJECT_ID":"2020-001AS","INCLINATION":"53.0543","EPOCH":"2023-06-12T14:18:55.177344","MEAN_ELEMENT_THEORY":"SGP4","REF_FRAME":"TEME","TIME_SYSTEM":"UTC","MEAN_MOTION":"15.06391334","CLASSIFICATION_TYPE":"U","FILE":"3931605","ECCENTRICITY":"0.00009400","SITE":"AFETR","TLE_LINE1":"1 44954U 20001AS  23163.59647196  .00000450  00000-0  49104-4 0  9992","PERIOD":"95.593"},{"PERIOD":"95.592","TLE_LINE1":"1 44955U 20001AT  23163.60383750 -.00000065  00000-0  14509-4 0  9992","FILE":"3931510","ECCENTRICITY":"0.00009430","CLASSIFICATION_TYPE":"U","SITE":"AFETR","MEAN_MOTION":"15.06401164","REF_FRAME":"TEME","TIME_SYSTEM":"UTC","INCLINATION":"53.0557","OBJECT_ID":"2020-001AT","MEAN_MOTION_DDOT":"0.0000000000000","MEAN_ELEMENT_THEORY":"SGP4","EPOCH":"2023-06-12T14:29:31.560000","OBJECT_TYPE":"PAYLOAD","ELEMENT_SET_NO":"999","GP_ID":"233775987","OBJECT_NAME":"STARLINK-1069","REV_AT_EPOCH":"18946","SEMIMAJOR_AXIS":"6925.345","BSTAR":"0.00001450900000","EPHEMERIS_TYPE":"0","LAUNCH_DATE":"2020-01-07","RCS_SIZE":"LARGE","NORAD_CAT_ID":"44955","APOAPSIS":"547.863","DECAY_DATE":null,"COUNTRY_CODE":"US","CENTER_NAME":"EARTH","PERIAPSIS":"546.557","MEAN_MOTION_DOT":"-0.00000065","ARG_OF_PERICENTER":"86.3201","RA_OF_ASC_NODE":"120.6649","TLE_LINE2":"2 44955  53.0557 120.6649 0000943  86.3201 273.7896 15.06401164189466","MEAN_ANOMALY":"273.7896"},{"OBJECT_TYPE":"PAYLOAD","INCLINATION":"53.0534","OBJECT_ID":"2020-001AU","MEAN_MOTION_DDOT":"0.0000000000000","MEAN_ELEMENT_THEORY":"SGP4","EPOCH":"2023-06-12T14:22:51.402720","GP_ID":"233798345","ELEMENT_SET_NO":"999","ECCENTRICITY":"0.00010640","FILE":"3931605","CLASSIFICATION_TYPE":"U","SITE":"AFETR","TLE_LINE1":"1 44956U 20001AU  23163.59920605 -.00000640  00000-0 -24072-4 0  9993","PERIOD":"95.593","REF_FRAME":"TEME","TIME_SYSTEM":"UTC","MEAN_MOTION":"15.06393078","MEAN_MOTION_DOT":"-0.00000640","CENTER_NAME":"EARTH","PERIAPSIS":"546.498","RA_OF_ASC_NODE":"120.6774","TLE_LINE2":"2 44956  53.0534 120.6774 0001064  96.8497 263.2613 15.06393078189521","MEAN_ANOMALY":"263.2613","ARG_OF_PERICENTER":"96.8497","BSTAR":"-0.00002407200000","LAUNCH_DATE":"2020-01-07","EPHEMERIS_TYPE":"0","RCS_SIZE":"LARGE","REV_AT_EPOCH":"18952","OBJECT_NAME":"STARLINK-1070","SEMIMAJOR_AXIS":"6925.370","NORAD_CAT_ID":"44956","APOAPSIS":"547.972","DECAY_DATE":null,"COUNTRY_CODE":"US"},{"COUNTRY_CODE":"US","DECAY_DATE":null,"APOAPSIS":"548.150","NORAD_CAT_ID":"44957","RCS_SIZE":"LARGE","EPHEMERIS_TYPE":"0","LAUNCH_DATE":"2020-01-07","BSTAR":"0.00002697300000","SEMIMAJOR_AXIS":"6925.403","OBJECT_NAME":"STARLINK-1074","REV_AT_EPOCH":"18956","MEAN_ANOMALY":"260.7761","TLE_LINE2":"2 44957  53.0545 119.3693 0001274  99.3372 260.7761 15.06382184189568","RA_OF_ASC_NODE":"119.3693","ARG_OF_PERICENTER":"99.3372","MEAN_MOTION_DOT":"0.00000120","PERIAPSIS":"546.386","CENTER_NAME":"EARTH","TIME_SYSTEM":"UTC","REF_FRAME":"TEME","MEAN_MOTION":"15.06382184","SITE":"AFETR","CLASSIFICATION_TYPE":"U","ECCENTRICITY":"0.00012740","FILE":"3931605","PERIOD":"95.593","TLE_LINE1":"1 44957U 20001AV  23163.89040606  .00000120  00000-0  26973-4 0  9994","GP_ID":"233796838","ELEMENT_SET_NO":"999","OBJECT_TYPE":"PAYLOAD","EPOCH":"2023-06-12T21:22:11.083584","MEAN_ELEMENT_THEORY":"SGP4","OBJECT_ID":"2020-001AV","MEAN_MOTION_DDOT":"0.0000000000000","INCLINATION":"53.0545"},{"NORAD_CAT_ID":"44959","DECAY_DATE":null,"APOAPSIS":"548.448","COUNTRY_CODE":"US","BSTAR":"0.00008878400000","EPHEMERIS_TYPE":"0","LAUNCH_DATE":"2020-01-07","RCS_SIZE":"LARGE","OBJECT_NAME":"STARLINK-1076","REV_AT_EPOCH":"18956","SEMIMAJOR_AXIS":"6925.396","RA_OF_ASC_NODE":"119.3119","TLE_LINE2":"2 44959  53.0554 119.3119 0001714  99.8146 260.3037 15.06384455189561","MEAN_ANOMALY":"260.3037","ARG_OF_PERICENTER":"99.8146","MEAN_MOTION_DOT":"0.00001041","CENTER_NAME":"EARTH","PERIAPSIS":"546.074","REF_FRAME":"TEME","TIME_SYSTEM":"UTC","MEAN_MOTION":"15.06384455","FILE":"3931605","ECCENTRICITY":"0.00017140","CLASSIFICATION_TYPE":"U","SITE":"AFETR","PERIOD":"95.593","TLE_LINE1":"1 44959U 20001AX  23163.90609351  .00001041  00000-0  88784-4 0  9997","GP_ID":"233796844","ELEMENT_SET_NO":"999","OBJECT_TYPE":"PAYLOAD","INCLINATION":"53.0554","OBJECT_ID":"2020-001AX","MEAN_MOTION_DDOT":"0.0000000000000","MEAN_ELEMENT_THEORY":"SGP4","EPOCH":"2023-06-12T21:44:46.479264"},{"NORAD_CAT_ID":"44961","COUNTRY_CODE":"US","APOAPSIS":"547.779","DECAY_DATE":null,"BSTAR":"-0.00000704280000","RCS_SIZE":"LARGE","LAUNCH_DATE":"2020-01-07","EPHEMERIS_TYPE":"0","OBJECT_NAME":"STARLINK-1080","REV_AT_EPOCH":"18952","SEMIMAJOR_AXIS":"6925.335","TLE_LINE2":"2 44961  53.0546 120.7648 0000836  90.0636 270.0448 15.06404274189521","RA_OF_ASC_NODE":"120.7648","MEAN_ANOMALY":"270.0448","ARG_OF_PERICENTER":"90.0636","MEAN_MOTION_DOT":"-0.00000386","CENTER_NAME":"EARTH","PERIAPSIS":"546.622","REF_FRAME":"TEME","TIME_SYSTEM":"UTC","MEAN_MOTION":"15.06404274","CLASSIFICATION_TYPE":"U","ECCENTRICITY":"0.00008360","FILE":"3931515","SITE":"AFETR","PERIOD":"95.592","TLE_LINE1":"1 44961U 20001AZ  23163.58171719 -.00000386  00000-0 -70428-5 0  9996","GP_ID":"233776563","ELEMENT_SET_NO":"999","OBJECT_TYPE":"PAYLOAD","OBJECT_ID":"2020-001AZ","MEAN_MOTION_DDOT":"0.0000000000000","INCLINATION":"53.0546","EPOCH":"2023-06-12T13:57:40.365216","MEAN_ELEMENT_THEORY":"SGP4"},{"OBJECT_TYPE":"PAYLOAD","INCLINATION":"53.0546","MEAN_MOTION_DDOT":"0.0000000000000","OBJECT_ID":"2020-001BC","MEAN_ELEMENT_THEORY":"SGP4","EPOCH":"2023-06-12T14:40:08.293440","GP_ID":"233797846","ELEMENT_SET_NO":"999","ECCENTRICITY":"0.00009230","FILE":"3931605","CLASSIFICATION_TYPE":"U","SITE":"AFETR","TLE_LINE1":"1 44964U 20001BC  23163.61120710 -.00000805  00000-0 -35180-4 0  9999","PERIOD":"95.592","REF_FRAME":"TEME","TIME_SYSTEM":"UTC","MEAN_MOTION":"15.06401983","MEAN_MOTION_DOT":"-0.00000805","CENTER_NAME":"EARTH","PERIAPSIS":"546.568","RA_OF_ASC_NODE":"120.6310","TLE_LINE2":"2 44964  53.0546 120.6310 0000923 101.4146 258.6947 15.06401983189529","MEAN_ANOMALY":"258.6947","ARG_OF_PERICENTER":"101.4146","BSTAR":"-0.00003518000000","LAUNCH_DATE":"2020-01-07","EPHEMERIS_TYPE":"0","RCS_SIZE":"LARGE","OBJECT_NAME":"STARLINK-1086","REV_AT_EPOCH":"18952","SEMIMAJOR_AXIS":"6925.342","NORAD_CAT_ID":"44964","APOAPSIS":"547.847","DECAY_DATE":null,"COUNTRY_CODE":"US"}];
